[
    {
        "Altitude(m)": 604234.5893348502,
        "Argument of Periapsis(deg)": 0.0,
        "Eccentricity": 0.0,
        "Inclination(deg)": 60.0,
        "Latitude(deg)": 14.117122309656677,
        "Longitude(deg)": -98.27266375481831,
        "Mean Anomaly(deg)": 163.63639999999998,
        "RAAN(deg)": 190.0,
        "Satellite Name": "Test1 846",
        "Satellite Number": 846,
        "Semi-Major Axis(m)": 6980739.136638005,
        "Time(s)": 0
    },
    {
        "Altitude(m)": 604223.4185690916,
        "Argument of Periapsis(deg)": 0.00010418945913296404,
        "Eccentricity": 0.0,
        "Inclination(deg)": 60.0,
        "Latitude(deg)": 13.582258494199161,
        "Longitude(deg)": -97.98575506542613,
        "Mean Anomaly(deg)": 164.25650614546183,
        "RAAN(deg)": 189.99957995086027,
        "Satellite Name": "Test1 846",
        "Satellite Number": 846,
        "Semi-Major Axis(m)": 6980739.136638005,
        "Time(s)": 10
    }
]